{
"type": "FeatureCollection",
"name": "supplied_roads",
"crs": { "type": "name", "properties": { "name": "urn:ogc:def:crs:OGC:1.3:CRS84" } },
"features": [
{ "type": "Feature", "properties": { "name": "Siribu road (from Ugunomu junction)", "mode": "Motor road", "mode_evidence": "supplied directly by the project as a road alignment; not derived from a speed measurement", "source": "Siribu_junction_and_road.kmz, supplied Sep 2026", "surface": "unknown", "tracktype": "unknown", "length_km": 1.237 }, "geometry": { "type": "LineString", "coordinates": [ [ 148.318043836920197, -9.063847438563773 ], [ 148.318435360797196, -9.065103186499666 ], [ 148.318154680067209, -9.065672356909189 ], [ 148.318149442938193, -9.066006758232096 ], [ 148.318198976759788, -9.066804086035768 ], [ 148.318162150536097, -9.067964997822536 ], [ 148.318249838588713, -9.068863020811541 ], [ 148.318756623519192, -9.069976044094455 ], [ 148.318871121848105, -9.070424490651586 ], [ 148.318989328021587, -9.0710078666865 ], [ 148.319120401382094, -9.071877234789429 ], [ 148.319387848782299, -9.072381560899769 ], [ 148.319487974850603, -9.072930675355128 ], [ 148.31957107601599, -9.074001133103346 ], [ 148.319607311344214, -9.074679875955429 ] ] } },
{ "type": "Feature", "properties": { "name": "Yoivi road", "mode": "Motor road", "mode_evidence": "supplied directly by the project as a road alignment; not derived from a speed measurement", "source": "Joivi_Road.kmz, supplied Sep 2026", "surface": "unknown", "tracktype": "unknown", "length_km": 1.204 }, "geometry": { "type": "LineString", "coordinates": [ [ 148.446291495682914, -9.129168584788864 ], [ 148.446490363928007, -9.129554265172214 ], [ 148.44659690313091, -9.129862848015806 ], [ 148.446659638808796, -9.130288541265045 ], [ 148.446830724778891, -9.130689167928864 ], [ 148.447074242757509, -9.131176658860129 ], [ 148.447100912544414, -9.13155274880247 ], [ 148.44720032123081, -9.131870500631651 ], [ 148.447485773205614, -9.132360975679367 ], [ 148.447730882726887, -9.132884242009968 ], [ 148.448035416275786, -9.133321272304832 ], [ 148.448106006738612, -9.133776735570269 ], [ 148.448380814145793, -9.13418873295144 ], [ 148.448599400088995, -9.134736479068996 ], [ 148.448791065798304, -9.135420344510598 ], [ 148.448941881858701, -9.135821496231587 ], [ 148.448941545722704, -9.136000843631672 ], [ 148.448926217018396, -9.136165478052193 ], [ 148.448940647144212, -9.136479942149736 ], [ 148.449212249982594, -9.136672380570079 ], [ 148.449333132145512, -9.136971204532752 ], [ 148.449424627567595, -9.137164609596882 ], [ 148.449365469679293, -9.137373954726703 ], [ 148.449292039908897, -9.137642513487148 ], [ 148.449459367527908, -9.137804858513796 ], [ 148.449703561663, -9.138099806016688 ], [ 148.449930931134389, -9.138322388525602 ], [ 148.450310850497686, -9.138903992400946 ] ] } }
]
}
