<?xml version="1.0" encoding="utf-8" standalone="yes"?>
<gpx version="1.1" creator="Locus Map, Android"
 xmlns="http://www.topografix.com/GPX/1/1"
 xmlns:xsi="http://www.w3.org/2001/XMLSchema-instance"
 xsi:schemaLocation="http://www.topografix.com/GPX/1/1 http://www.topografix.com/GPX/1/1/gpx.xsd"
 xmlns:gpxx="http://www.garmin.com/xmlschemas/GpxExtensions/v3"
 xmlns:gpxtrkx="http://www.garmin.com/xmlschemas/TrackStatsExtension/v1"
 xmlns:gpxtpx="http://www.garmin.com/xmlschemas/TrackPointExtension/v2"
 xmlns:locus="https://www.locusmap.app">
	<metadata>
		<desc>File with points/tracks from Locus Map/4.28.3.3</desc>
		<time>2026-03-17T23:52:36.722Z</time>
	</metadata>
<trk>
<name>Anatua-Gadzot-Umbuwara-Track</name>
<desc><![CDATA[<!-- desc_gen:start -->
<font color="black"><table width="100%"><tr><td><table width="100%"><tr><td align="left" valign="center"><small><b>Activity</b></small></td><td align="center" valign="center">Cycling</td></tr>
<tr><td align="left" valign="center"><small><b>Distance</b></small></td><td align="center" valign="center">1.7 km</td></tr>
<tr><td align="left" valign="center"><small><b>Created</b></small></td><td align="center" valign="center">2026-03-17 09:00:35</td></tr>
<tr><td align="left" valign="center"><small><b>Max. speed</b></small></td><td align="center" valign="center">3.8 mi/h</td></tr>
<tr><td align="left" valign="center"><small><b>Pace</b></small></td><td align="center" valign="center">36:16 min/mile</td></tr>
<tr><td align="left" valign="center"><small><b>Energy</b></small></td><td align="center" valign="center">877 KJ</td></tr>
<tr><td align="left" valign="center"><small><b>Points</b></small></td><td align="center" valign="center">163</td></tr>
</table></td></tr><tr><td colspan="1"><hr></td></tr><tr><td><table width="100%"><tr><td align="left" valign="center"><small><b></b></small></td><td align="center" valign="center">All</td><td align="center" valign="center">Speed > 0</td></tr>
<tr><td align="left" valign="center"><small><b>Avg. speed</b></small></td><td align="center" valign="center">1.7 mi/h</td><td align="center" valign="center">2.5 mi/h</td></tr>
<tr><td align="left" valign="center"><small><b>Track time</b></small></td><td align="center" valign="center">0:38:43</td><td align="center" valign="center">0:24:26</td></tr>
</table></td></tr><tr><td colspan="1"><hr></td></tr><tr><td><table width="100%"><tr><td align="left" valign="center"><small><b>Min. altitude</b></small></td><td align="center" valign="center">767 m</td></tr>
<tr><td align="left" valign="center"><small><b>Max. altitude</b></small></td><td align="center" valign="center">797 m</td></tr>
</table></td></tr><tr><td colspan="1"><hr></td></tr><tr><td><table width="100%"><tr><td align="left" valign="center"><small><b></b></small></td><td align="center" valign="center">Elevation</td><td align="center" valign="center">Distance</td></tr>
<tr><td align="left" valign="center"><small><b>Uphill</b></small></td><td align="center" valign="center">35 m</td><td align="center" valign="center">488 m</td></tr>
<tr><td align="left" valign="center"><small><b>Downhill</b></small></td><td align="center" valign="center">-42 m</td><td align="center" valign="center">543 m</td></tr>
<tr><td align="left" valign="center"><small><b>Flat</b></small></td><td align="center" valign="center">0 m</td><td align="center" valign="center">595 m</td></tr>
</table></td></tr></table></font>
<!-- desc_gen:end -->]]></desc>
	<extensions>
		<line xmlns="http://www.topografix.com/GPX/gpx_style/0/2">
			<color>0000FF</color>
			<opacity>0.70</opacity>
			<width>6.0</width>
			<extensions>
				<locus:lsColorBase>#B30000FF</locus:lsColorBase>
				<locus:lsWidth>6.0</locus:lsWidth>
				<locus:lsUnits>PIXELS</locus:lsUnits>
			</extensions>
		</line>
		<locus:activity>cycling</locus:activity>
	</extensions>
<trkseg>
<trkpt lat="-9.1294700" lon="148.2685833">
	<ele>793.53</ele>
	<time>2026-03-17T23:00:55.000Z</time>
	<hdop>2.10</hdop>
	<extensions>
		<gpxtpx:TrackPointExtension>
			<gpxtpx:course>283.08</gpxtpx:course>
		</gpxtpx:TrackPointExtension>
	</extensions>
</trkpt>
<trkpt lat="-9.1294867" lon="148.2686833">
	<ele>789.31</ele>
	<time>2026-03-17T23:03:59.000Z</time>
	<hdop>1.50</hdop>
	<extensions>
		<gpxtpx:TrackPointExtension>
			<gpxtpx:course>96.49</gpxtpx:course>
		</gpxtpx:TrackPointExtension>
	</extensions>
</trkpt>
<trkpt lat="-9.1295383" lon="148.2687583">
	<ele>792.64</ele>
	<time>2026-03-17T23:04:06.000Z</time>
	<hdop>1.70</hdop>
	<extensions>
		<gpxtpx:TrackPointExtension>
			<gpxtpx:course>132.82</gpxtpx:course>
		</gpxtpx:TrackPointExtension>
	</extensions>
</trkpt>
<trkpt lat="-9.1295750" lon="148.2688483">
	<ele>794.30</ele>
	<time>2026-03-17T23:04:15.000Z</time>
	<hdop>1.70</hdop>
	<extensions>
		<gpxtpx:TrackPointExtension>
			<gpxtpx:course>102.21</gpxtpx:course>
		</gpxtpx:TrackPointExtension>
	</extensions>
</trkpt>
<trkpt lat="-9.1295917" lon="148.2689433">
	<ele>794.72</ele>
	<time>2026-03-17T23:04:22.000Z</time>
	<hdop>1.70</hdop>
	<extensions>
		<gpxtpx:TrackPointExtension>
			<gpxtpx:course>82.97</gpxtpx:course>
		</gpxtpx:TrackPointExtension>
	</extensions>
</trkpt>
<trkpt lat="-9.1296133" lon="148.2690350">
	<ele>794.21</ele>
	<time>2026-03-17T23:04:31.000Z</time>
	<hdop>1.80</hdop>
	<extensions>
		<gpxtpx:TrackPointExtension>
			<gpxtpx:course>115.3</gpxtpx:course>
		</gpxtpx:TrackPointExtension>
	</extensions>
</trkpt>
<trkpt lat="-9.1296517" lon="148.2691233">
	<ele>793.49</ele>
	<time>2026-03-17T23:04:38.000Z</time>
	<hdop>1.70</hdop>
	<extensions>
		<gpxtpx:TrackPointExtension>
			<gpxtpx:course>112.3</gpxtpx:course>
		</gpxtpx:TrackPointExtension>
	</extensions>
</trkpt>
<trkpt lat="-9.1297017" lon="148.2692133">
	<ele>793.15</ele>
	<time>2026-03-17T23:04:45.000Z</time>
	<hdop>1.70</hdop>
	<extensions>
		<gpxtpx:TrackPointExtension>
			<gpxtpx:course>126.64</gpxtpx:course>
		</gpxtpx:TrackPointExtension>
	</extensions>
</trkpt>
<trkpt lat="-9.1297600" lon="148.2692917">
	<ele>791.10</ele>
	<time>2026-03-17T23:04:53.000Z</time>
	<hdop>1.70</hdop>
	<extensions>
		<gpxtpx:TrackPointExtension>
			<gpxtpx:course>116.45</gpxtpx:course>
		</gpxtpx:TrackPointExtension>
	</extensions>
</trkpt>
<trkpt lat="-9.1298150" lon="148.2693650">
	<ele>790.58</ele>
	<time>2026-03-17T23:05:00.000Z</time>
	<hdop>1.70</hdop>
	<extensions>
		<gpxtpx:TrackPointExtension>
			<gpxtpx:course>127.29</gpxtpx:course>
		</gpxtpx:TrackPointExtension>
	</extensions>
</trkpt>
<trkpt lat="-9.1298667" lon="148.2694417">
	<ele>786.72</ele>
	<time>2026-03-17T23:05:06.000Z</time>
	<hdop>1.60</hdop>
	<extensions>
		<gpxtpx:TrackPointExtension>
			<gpxtpx:course>115.44</gpxtpx:course>
		</gpxtpx:TrackPointExtension>
	</extensions>
</trkpt>
<trkpt lat="-9.1299050" lon="148.2695283">
	<ele>782.32</ele>
	<time>2026-03-17T23:05:13.000Z</time>
	<hdop>1.60</hdop>
	<extensions>
		<gpxtpx:TrackPointExtension>
			<gpxtpx:course>112.03</gpxtpx:course>
		</gpxtpx:TrackPointExtension>
	</extensions>
</trkpt>
<trkpt lat="-9.1299650" lon="148.2695967">
	<ele>781.29</ele>
	<time>2026-03-17T23:05:22.000Z</time>
	<hdop>1.70</hdop>
	<extensions>
		<gpxtpx:TrackPointExtension>
			<gpxtpx:course>153.35</gpxtpx:course>
		</gpxtpx:TrackPointExtension>
	</extensions>
</trkpt>
<trkpt lat="-9.1300467" lon="148.2696500">
	<ele>778.98</ele>
	<time>2026-03-17T23:05:31.000Z</time>
	<hdop>1.80</hdop>
	<extensions>
		<gpxtpx:TrackPointExtension>
			<gpxtpx:course>139.45</gpxtpx:course>
		</gpxtpx:TrackPointExtension>
	</extensions>
</trkpt>
<trkpt lat="-9.1301000" lon="148.2697250">
	<ele>776.84</ele>
	<time>2026-03-17T23:05:43.000Z</time>
	<hdop>1.70</hdop>
	<extensions>
		<gpxtpx:TrackPointExtension>
			<gpxtpx:course>121.39</gpxtpx:course>
		</gpxtpx:TrackPointExtension>
	</extensions>
</trkpt>
<trkpt lat="-9.1301683" lon="148.2697967">
	<ele>775.92</ele>
	<time>2026-03-17T23:05:56.000Z</time>
	<hdop>1.70</hdop>
	<extensions>
		<gpxtpx:TrackPointExtension>
			<gpxtpx:course>188.2</gpxtpx:course>
		</gpxtpx:TrackPointExtension>
	</extensions>
</trkpt>
<trkpt lat="-9.1302383" lon="148.2698617">
	<ele>774.72</ele>
	<time>2026-03-17T23:06:03.000Z</time>
	<hdop>2.00</hdop>
	<extensions>
		<gpxtpx:TrackPointExtension>
			<gpxtpx:course>117.82</gpxtpx:course>
		</gpxtpx:TrackPointExtension>
	</extensions>
</trkpt>
<trkpt lat="-9.1303150" lon="148.2699250">
	<ele>772.95</ele>
	<time>2026-03-17T23:06:11.000Z</time>
	<hdop>2.20</hdop>
	<extensions>
		<gpxtpx:TrackPointExtension>
			<gpxtpx:course>166.74</gpxtpx:course>
		</gpxtpx:TrackPointExtension>
	</extensions>
</trkpt>
<trkpt lat="-9.1303800" lon="148.2699917">
	<ele>769.12</ele>
	<time>2026-03-17T23:06:26.000Z</time>
	<hdop>2.10</hdop>
	<extensions>
		<gpxtpx:TrackPointExtension>
			<gpxtpx:course>114.75</gpxtpx:course>
		</gpxtpx:TrackPointExtension>
	</extensions>
</trkpt>
<trkpt lat="-9.1303950" lon="148.2700817">
	<ele>769.05</ele>
	<time>2026-03-17T23:06:34.000Z</time>
	<hdop>2.10</hdop>
	<extensions>
		<gpxtpx:TrackPointExtension>
			<gpxtpx:course>85.88</gpxtpx:course>
		</gpxtpx:TrackPointExtension>
	</extensions>
</trkpt>
<trkpt lat="-9.1303983" lon="148.2701733">
	<ele>768.49</ele>
	<time>2026-03-17T23:06:44.000Z</time>
	<hdop>2.10</hdop>
	<extensions>
		<gpxtpx:TrackPointExtension>
			<gpxtpx:course>116.27</gpxtpx:course>
		</gpxtpx:TrackPointExtension>
	</extensions>
</trkpt>
<trkpt lat="-9.1304300" lon="148.2702633">
	<ele>767.46</ele>
	<time>2026-03-17T23:06:57.000Z</time>
	<hdop>1.90</hdop>
	<extensions>
		<gpxtpx:TrackPointExtension>
			<gpxtpx:course>123.72</gpxtpx:course>
		</gpxtpx:TrackPointExtension>
	</extensions>
</trkpt>
<trkpt lat="-9.1304367" lon="148.2703633">
	<ele>768.55</ele>
	<time>2026-03-17T23:08:45.000Z</time>
	<hdop>1.70</hdop>
	<extensions>
		<gpxtpx:TrackPointExtension>
			<gpxtpx:course>81.64</gpxtpx:course>
		</gpxtpx:TrackPointExtension>
	</extensions>
</trkpt>
<trkpt lat="-9.1303967" lon="148.2704550">
	<ele>773.13</ele>
	<time>2026-03-17T23:08:57.000Z</time>
	<hdop>1.70</hdop>
	<extensions>
		<gpxtpx:TrackPointExtension>
			<gpxtpx:course>77.83</gpxtpx:course>
		</gpxtpx:TrackPointExtension>
	</extensions>
</trkpt>
<trkpt lat="-9.1304267" lon="148.2705467">
	<ele>775.48</ele>
	<time>2026-03-17T23:09:07.000Z</time>
	<hdop>1.80</hdop>
	<extensions>
		<gpxtpx:TrackPointExtension>
			<gpxtpx:course>97.16</gpxtpx:course>
		</gpxtpx:TrackPointExtension>
	</extensions>
</trkpt>
<trkpt lat="-9.1304167" lon="148.2706400">
	<ele>778.05</ele>
	<time>2026-03-17T23:09:18.000Z</time>
	<hdop>1.70</hdop>
	<extensions>
		<gpxtpx:TrackPointExtension>
			<gpxtpx:course>115.39</gpxtpx:course>
		</gpxtpx:TrackPointExtension>
	</extensions>
</trkpt>
<trkpt lat="-9.1304150" lon="148.2707333">
	<ele>779.50</ele>
	<time>2026-03-17T23:09:29.000Z</time>
	<hdop>1.70</hdop>
	<extensions>
		<gpxtpx:TrackPointExtension>
			<gpxtpx:course>77.66</gpxtpx:course>
		</gpxtpx:TrackPointExtension>
	</extensions>
</trkpt>
<trkpt lat="-9.1303433" lon="148.2707917">
	<ele>782.11</ele>
	<time>2026-03-17T23:09:38.000Z</time>
	<hdop>1.80</hdop>
	<extensions>
		<gpxtpx:TrackPointExtension>
			<gpxtpx:course>4.62</gpxtpx:course>
		</gpxtpx:TrackPointExtension>
	</extensions>
</trkpt>
<trkpt lat="-9.1302650" lon="148.2708500">
	<ele>783.73</ele>
	<time>2026-03-17T23:09:45.000Z</time>
	<hdop>1.70</hdop>
	<extensions>
		<gpxtpx:TrackPointExtension>
			<gpxtpx:course>23.91</gpxtpx:course>
		</gpxtpx:TrackPointExtension>
	</extensions>
</trkpt>
<trkpt lat="-9.1302033" lon="148.2709167">
	<ele>781.47</ele>
	<time>2026-03-17T23:09:52.000Z</time>
	<hdop>1.70</hdop>
	<extensions>
		<gpxtpx:TrackPointExtension>
			<gpxtpx:course>61.72</gpxtpx:course>
		</gpxtpx:TrackPointExtension>
	</extensions>
</trkpt>
<trkpt lat="-9.1301467" lon="148.2709950">
	<ele>779.77</ele>
	<time>2026-03-17T23:10:00.000Z</time>
	<hdop>1.60</hdop>
	<extensions>
		<gpxtpx:TrackPointExtension>
			<gpxtpx:course>61.62</gpxtpx:course>
		</gpxtpx:TrackPointExtension>
	</extensions>
</trkpt>
<trkpt lat="-9.1300767" lon="148.2710617">
	<ele>779.04</ele>
	<time>2026-03-17T23:10:09.000Z</time>
	<hdop>1.50</hdop>
	<extensions>
		<gpxtpx:TrackPointExtension>
			<gpxtpx:course>57.33</gpxtpx:course>
		</gpxtpx:TrackPointExtension>
	</extensions>
</trkpt>
<trkpt lat="-9.1299900" lon="148.2711017">
	<ele>779.48</ele>
	<time>2026-03-17T23:10:17.000Z</time>
	<hdop>1.50</hdop>
	<extensions>
		<gpxtpx:TrackPointExtension>
			<gpxtpx:course>9.86</gpxtpx:course>
		</gpxtpx:TrackPointExtension>
	</extensions>
</trkpt>
<trkpt lat="-9.1299117" lon="148.2711550">
	<ele>780.56</ele>
	<time>2026-03-17T23:10:25.000Z</time>
	<hdop>1.50</hdop>
	<extensions>
		<gpxtpx:TrackPointExtension>
			<gpxtpx:course>19.98</gpxtpx:course>
		</gpxtpx:TrackPointExtension>
	</extensions>
</trkpt>
<trkpt lat="-9.1298300" lon="148.2712217">
	<ele>778.80</ele>
	<time>2026-03-17T23:10:35.000Z</time>
	<hdop>1.50</hdop>
	<extensions>
		<gpxtpx:TrackPointExtension>
			<gpxtpx:course>40.93</gpxtpx:course>
		</gpxtpx:TrackPointExtension>
	</extensions>
</trkpt>
<trkpt lat="-9.1297500" lon="148.2712850">
	<ele>780.20</ele>
	<time>2026-03-17T23:10:43.000Z</time>
	<hdop>1.60</hdop>
	<extensions>
		<gpxtpx:TrackPointExtension>
			<gpxtpx:course>39.38</gpxtpx:course>
		</gpxtpx:TrackPointExtension>
	</extensions>
</trkpt>
<trkpt lat="-9.1296617" lon="148.2713450">
	<ele>780.84</ele>
	<time>2026-03-17T23:10:51.000Z</time>
	<hdop>1.60</hdop>
	<extensions>
		<gpxtpx:TrackPointExtension>
			<gpxtpx:course>31.57</gpxtpx:course>
		</gpxtpx:TrackPointExtension>
	</extensions>
</trkpt>
<trkpt lat="-9.1295967" lon="148.2714100">
	<ele>781.14</ele>
	<time>2026-03-17T23:10:58.000Z</time>
	<hdop>1.50</hdop>
	<extensions>
		<gpxtpx:TrackPointExtension>
			<gpxtpx:course>34.42</gpxtpx:course>
		</gpxtpx:TrackPointExtension>
	</extensions>
</trkpt>
<trkpt lat="-9.1295450" lon="148.2714850">
	<ele>780.83</ele>
	<time>2026-03-17T23:11:08.000Z</time>
	<hdop>1.50</hdop>
	<extensions>
		<gpxtpx:TrackPointExtension>
			<gpxtpx:course>81.45</gpxtpx:course>
		</gpxtpx:TrackPointExtension>
	</extensions>
</trkpt>
<trkpt lat="-9.1295100" lon="148.2715833">
	<ele>781.79</ele>
	<time>2026-03-17T23:11:15.000Z</time>
	<hdop>1.90</hdop>
	<extensions>
		<gpxtpx:TrackPointExtension>
			<gpxtpx:course>57.93</gpxtpx:course>
		</gpxtpx:TrackPointExtension>
	</extensions>
</trkpt>
<trkpt lat="-9.1294517" lon="148.2716633">
	<ele>782.15</ele>
	<time>2026-03-17T23:11:27.000Z</time>
	<hdop>1.70</hdop>
	<extensions>
		<gpxtpx:TrackPointExtension>
			<gpxtpx:course>62.04</gpxtpx:course>
		</gpxtpx:TrackPointExtension>
	</extensions>
</trkpt>
<trkpt lat="-9.1294667" lon="148.2717600">
	<ele>782.77</ele>
	<time>2026-03-17T23:11:35.000Z</time>
	<hdop>1.80</hdop>
	<extensions>
		<gpxtpx:TrackPointExtension>
			<gpxtpx:course>118.21</gpxtpx:course>
		</gpxtpx:TrackPointExtension>
	</extensions>
</trkpt>
<trkpt lat="-9.1294800" lon="148.2718533">
	<ele>783.82</ele>
	<time>2026-03-17T23:11:46.000Z</time>
	<hdop>1.60</hdop>
	<extensions>
		<gpxtpx:TrackPointExtension>
			<gpxtpx:course>115.13</gpxtpx:course>
		</gpxtpx:TrackPointExtension>
	</extensions>
</trkpt>
<trkpt lat="-9.1294783" lon="148.2719517">
	<ele>782.77</ele>
	<time>2026-03-17T23:11:55.000Z</time>
	<hdop>1.60</hdop>
	<extensions>
		<gpxtpx:TrackPointExtension>
			<gpxtpx:course>113.91</gpxtpx:course>
		</gpxtpx:TrackPointExtension>
	</extensions>
</trkpt>
<trkpt lat="-9.1294950" lon="148.2720417">
	<ele>782.38</ele>
	<time>2026-03-17T23:12:03.000Z</time>
	<hdop>1.60</hdop>
	<extensions>
		<gpxtpx:TrackPointExtension>
			<gpxtpx:course>86.78</gpxtpx:course>
		</gpxtpx:TrackPointExtension>
	</extensions>
</trkpt>
<trkpt lat="-9.1295017" lon="148.2721350">
	<ele>783.12</ele>
	<time>2026-03-17T23:12:14.000Z</time>
	<hdop>1.40</hdop>
	<extensions>
		<gpxtpx:TrackPointExtension>
			<gpxtpx:course>85.17</gpxtpx:course>
		</gpxtpx:TrackPointExtension>
	</extensions>
</trkpt>
<trkpt lat="-9.1295150" lon="148.2722367">
	<ele>783.32</ele>
	<time>2026-03-17T23:12:23.000Z</time>
	<hdop>1.50</hdop>
	<extensions>
		<gpxtpx:TrackPointExtension>
			<gpxtpx:course>108.08</gpxtpx:course>
		</gpxtpx:TrackPointExtension>
	</extensions>
</trkpt>
<trkpt lat="-9.1295517" lon="148.2723267">
	<ele>784.87</ele>
	<time>2026-03-17T23:12:32.000Z</time>
	<hdop>1.40</hdop>
	<extensions>
		<gpxtpx:TrackPointExtension>
			<gpxtpx:course>89.28</gpxtpx:course>
		</gpxtpx:TrackPointExtension>
	</extensions>
</trkpt>
<trkpt lat="-9.1295717" lon="148.2724183">
	<ele>787.18</ele>
	<time>2026-03-17T23:12:41.000Z</time>
	<hdop>1.50</hdop>
	<extensions>
		<gpxtpx:TrackPointExtension>
			<gpxtpx:course>123.89</gpxtpx:course>
		</gpxtpx:TrackPointExtension>
	</extensions>
</trkpt>
<trkpt lat="-9.1295850" lon="148.2725083">
	<ele>789.20</ele>
	<time>2026-03-17T23:12:47.000Z</time>
	<hdop>1.60</hdop>
	<extensions>
		<gpxtpx:TrackPointExtension>
			<gpxtpx:course>117.2</gpxtpx:course>
		</gpxtpx:TrackPointExtension>
	</extensions>
</trkpt>
<trkpt lat="-9.1295983" lon="148.2726100">
	<ele>787.99</ele>
	<time>2026-03-17T23:12:57.000Z</time>
	<hdop>1.50</hdop>
	<extensions>
		<gpxtpx:TrackPointExtension>
			<gpxtpx:course>108.24</gpxtpx:course>
		</gpxtpx:TrackPointExtension>
	</extensions>
</trkpt>
<trkpt lat="-9.1295700" lon="148.2726967">
	<ele>786.73</ele>
	<time>2026-03-17T23:13:31.000Z</time>
	<hdop>1.60</hdop>
	<extensions>
		<gpxtpx:TrackPointExtension>
			<gpxtpx:course>80.1</gpxtpx:course>
		</gpxtpx:TrackPointExtension>
	</extensions>
</trkpt>
<trkpt lat="-9.1296650" lon="148.2727000">
	<ele>787.62</ele>
	<time>2026-03-17T23:14:26.000Z</time>
	<hdop>1.30</hdop>
	<extensions>
		<gpxtpx:TrackPointExtension>
			<gpxtpx:course>56.36</gpxtpx:course>
		</gpxtpx:TrackPointExtension>
	</extensions>
</trkpt>
<trkpt lat="-9.1297533" lon="148.2726667">
	<ele>787.79</ele>
	<time>2026-03-17T23:14:35.000Z</time>
	<hdop>1.30</hdop>
	<extensions>
		<gpxtpx:TrackPointExtension>
			<gpxtpx:course>234.47</gpxtpx:course>
		</gpxtpx:TrackPointExtension>
	</extensions>
</trkpt>
<trkpt lat="-9.1298417" lon="148.2726267">
	<ele>786.99</ele>
	<time>2026-03-17T23:14:43.000Z</time>
	<hdop>1.50</hdop>
	<extensions>
		<gpxtpx:TrackPointExtension>
			<gpxtpx:course>211.55</gpxtpx:course>
		</gpxtpx:TrackPointExtension>
	</extensions>
</trkpt>
<trkpt lat="-9.1299367" lon="148.2725917">
	<ele>788.37</ele>
	<time>2026-03-17T23:14:54.000Z</time>
	<hdop>1.50</hdop>
	<extensions>
		<gpxtpx:TrackPointExtension>
			<gpxtpx:course>190.76</gpxtpx:course>
		</gpxtpx:TrackPointExtension>
	</extensions>
</trkpt>
<trkpt lat="-9.1300233" lon="148.2725533">
	<ele>788.09</ele>
	<time>2026-03-17T23:15:03.000Z</time>
	<hdop>1.30</hdop>
	<extensions>
		<gpxtpx:TrackPointExtension>
			<gpxtpx:course>203.4</gpxtpx:course>
		</gpxtpx:TrackPointExtension>
	</extensions>
</trkpt>
<trkpt lat="-9.1301100" lon="148.2725200">
	<ele>786.61</ele>
	<time>2026-03-17T23:15:13.000Z</time>
	<hdop>1.40</hdop>
	<extensions>
		<gpxtpx:TrackPointExtension>
			<gpxtpx:course>227.11</gpxtpx:course>
		</gpxtpx:TrackPointExtension>
	</extensions>
</trkpt>
<trkpt lat="-9.1301883" lon="148.2724650">
	<ele>789.20</ele>
	<time>2026-03-17T23:15:27.000Z</time>
	<hdop>1.40</hdop>
	<extensions>
		<gpxtpx:TrackPointExtension>
			<gpxtpx:course>244.13</gpxtpx:course>
		</gpxtpx:TrackPointExtension>
	</extensions>
</trkpt>
<trkpt lat="-9.1302783" lon="148.2724933">
	<ele>786.60</ele>
	<time>2026-03-17T23:17:35.000Z</time>
	<hdop>1.40</hdop>
	<extensions>
		<gpxtpx:TrackPointExtension>
			<gpxtpx:course>129.52</gpxtpx:course>
		</gpxtpx:TrackPointExtension>
	</extensions>
</trkpt>
<trkpt lat="-9.1301800" lon="148.2724817">
	<ele>787.13</ele>
	<time>2026-03-17T23:20:48.000Z</time>
	<hdop>1.50</hdop>
	<extensions>
		<gpxtpx:TrackPointExtension>
			<gpxtpx:course>19.68</gpxtpx:course>
		</gpxtpx:TrackPointExtension>
	</extensions>
</trkpt>
<trkpt lat="-9.1300933" lon="148.2725117">
	<ele>787.21</ele>
	<time>2026-03-17T23:20:56.000Z</time>
	<hdop>1.50</hdop>
	<extensions>
		<gpxtpx:TrackPointExtension>
			<gpxtpx:course>11.57</gpxtpx:course>
		</gpxtpx:TrackPointExtension>
	</extensions>
</trkpt>
<trkpt lat="-9.1299983" lon="148.2725400">
	<ele>785.94</ele>
	<time>2026-03-17T23:21:05.000Z</time>
	<hdop>1.50</hdop>
	<extensions>
		<gpxtpx:TrackPointExtension>
			<gpxtpx:course>23.02</gpxtpx:course>
		</gpxtpx:TrackPointExtension>
	</extensions>
</trkpt>
<trkpt lat="-9.1299133" lon="148.2725767">
	<ele>785.36</ele>
	<time>2026-03-17T23:21:14.000Z</time>
	<hdop>1.60</hdop>
	<extensions>
		<gpxtpx:TrackPointExtension>
			<gpxtpx:course>18.05</gpxtpx:course>
		</gpxtpx:TrackPointExtension>
	</extensions>
</trkpt>
<trkpt lat="-9.1298267" lon="148.2726217">
	<ele>785.09</ele>
	<time>2026-03-17T23:21:22.000Z</time>
	<hdop>1.50</hdop>
	<extensions>
		<gpxtpx:TrackPointExtension>
			<gpxtpx:course>30.26</gpxtpx:course>
		</gpxtpx:TrackPointExtension>
	</extensions>
</trkpt>
<trkpt lat="-9.1297350" lon="148.2726517">
	<ele>786.27</ele>
	<time>2026-03-17T23:21:32.000Z</time>
	<hdop>1.50</hdop>
	<extensions>
		<gpxtpx:TrackPointExtension>
			<gpxtpx:course>9.07</gpxtpx:course>
		</gpxtpx:TrackPointExtension>
	</extensions>
</trkpt>
<trkpt lat="-9.1296517" lon="148.2727033">
	<ele>786.83</ele>
	<time>2026-03-17T23:21:41.000Z</time>
	<hdop>1.50</hdop>
	<extensions>
		<gpxtpx:TrackPointExtension>
			<gpxtpx:course>21.13</gpxtpx:course>
		</gpxtpx:TrackPointExtension>
	</extensions>
</trkpt>
<trkpt lat="-9.1295633" lon="148.2727383">
	<ele>787.48</ele>
	<time>2026-03-17T23:21:52.000Z</time>
	<hdop>1.50</hdop>
	<extensions>
		<gpxtpx:TrackPointExtension>
			<gpxtpx:course>24.38</gpxtpx:course>
		</gpxtpx:TrackPointExtension>
	</extensions>
</trkpt>
<trkpt lat="-9.1294717" lon="148.2727750">
	<ele>787.93</ele>
	<time>2026-03-17T23:22:02.000Z</time>
	<hdop>1.70</hdop>
	<extensions>
		<gpxtpx:TrackPointExtension>
			<gpxtpx:course>355.2</gpxtpx:course>
		</gpxtpx:TrackPointExtension>
	</extensions>
</trkpt>
<trkpt lat="-9.1293800" lon="148.2727983">
	<ele>787.42</ele>
	<time>2026-03-17T23:22:16.000Z</time>
	<hdop>1.70</hdop>
	<extensions>
		<gpxtpx:TrackPointExtension>
			<gpxtpx:course>15.17</gpxtpx:course>
		</gpxtpx:TrackPointExtension>
	</extensions>
</trkpt>
<trkpt lat="-9.1292883" lon="148.2728200">
	<ele>786.64</ele>
	<time>2026-03-17T23:22:24.000Z</time>
	<hdop>1.90</hdop>
	<extensions>
		<gpxtpx:TrackPointExtension>
			<gpxtpx:course>353.89</gpxtpx:course>
		</gpxtpx:TrackPointExtension>
	</extensions>
</trkpt>
<trkpt lat="-9.1292000" lon="148.2728450">
	<ele>786.46</ele>
	<time>2026-03-17T23:22:33.000Z</time>
	<hdop>1.70</hdop>
	<extensions>
		<gpxtpx:TrackPointExtension>
			<gpxtpx:course>1.49</gpxtpx:course>
		</gpxtpx:TrackPointExtension>
	</extensions>
</trkpt>
<trkpt lat="-9.1291050" lon="148.2728550">
	<ele>787.43</ele>
	<time>2026-03-17T23:22:42.000Z</time>
	<hdop>1.80</hdop>
	<extensions>
		<gpxtpx:TrackPointExtension>
			<gpxtpx:course>356.12</gpxtpx:course>
		</gpxtpx:TrackPointExtension>
	</extensions>
</trkpt>
<trkpt lat="-9.1290050" lon="148.2728350">
	<ele>786.37</ele>
	<time>2026-03-17T23:23:00.000Z</time>
	<hdop>1.60</hdop>
	<extensions>
		<gpxtpx:TrackPointExtension>
			<gpxtpx:course>341.53</gpxtpx:course>
		</gpxtpx:TrackPointExtension>
	</extensions>
</trkpt>
<trkpt lat="-9.1289133" lon="148.2728417">
	<ele>788.03</ele>
	<time>2026-03-17T23:23:19.000Z</time>
	<hdop>1.60</hdop>
	<extensions>
		<gpxtpx:TrackPointExtension>
			<gpxtpx:course>16.69</gpxtpx:course>
		</gpxtpx:TrackPointExtension>
	</extensions>
</trkpt>
<trkpt lat="-9.1288200" lon="148.2728317">
	<ele>788.03</ele>
	<time>2026-03-17T23:23:30.000Z</time>
	<hdop>1.50</hdop>
	<extensions>
		<gpxtpx:TrackPointExtension>
			<gpxtpx:course>357.75</gpxtpx:course>
		</gpxtpx:TrackPointExtension>
	</extensions>
</trkpt>
<trkpt lat="-9.1287267" lon="148.2728400">
	<ele>787.34</ele>
	<time>2026-03-17T23:23:43.000Z</time>
	<hdop>1.60</hdop>
	<extensions>
		<gpxtpx:TrackPointExtension>
			<gpxtpx:course>21.44</gpxtpx:course>
		</gpxtpx:TrackPointExtension>
	</extensions>
</trkpt>
<trkpt lat="-9.1286433" lon="148.2728850">
	<ele>790.81</ele>
	<time>2026-03-17T23:24:00.000Z</time>
	<hdop>1.60</hdop>
	<extensions>
		<gpxtpx:TrackPointExtension>
			<gpxtpx:course>18.3</gpxtpx:course>
		</gpxtpx:TrackPointExtension>
	</extensions>
</trkpt>
<trkpt lat="-9.1285483" lon="148.2728950">
	<ele>792.18</ele>
	<time>2026-03-17T23:24:19.000Z</time>
	<hdop>1.70</hdop>
	<extensions>
		<gpxtpx:TrackPointExtension>
			<gpxtpx:course>357.93</gpxtpx:course>
		</gpxtpx:TrackPointExtension>
	</extensions>
</trkpt>
<trkpt lat="-9.1284583" lon="148.2728683">
	<ele>791.48</ele>
	<time>2026-03-17T23:24:28.000Z</time>
	<hdop>1.80</hdop>
	<extensions>
		<gpxtpx:TrackPointExtension>
			<gpxtpx:course>341.55</gpxtpx:course>
		</gpxtpx:TrackPointExtension>
	</extensions>
</trkpt>
<trkpt lat="-9.1283700" lon="148.2728433">
	<ele>791.77</ele>
	<time>2026-03-17T23:24:36.000Z</time>
	<hdop>1.90</hdop>
	<extensions>
		<gpxtpx:TrackPointExtension>
			<gpxtpx:course>348.41</gpxtpx:course>
		</gpxtpx:TrackPointExtension>
	</extensions>
</trkpt>
<trkpt lat="-9.1282683" lon="148.2728300">
	<ele>790.25</ele>
	<time>2026-03-17T23:24:45.000Z</time>
	<hdop>1.90</hdop>
	<extensions>
		<gpxtpx:TrackPointExtension>
			<gpxtpx:course>2.25</gpxtpx:course>
		</gpxtpx:TrackPointExtension>
	</extensions>
</trkpt>
<trkpt lat="-9.1281633" lon="148.2728367">
	<ele>789.93</ele>
	<time>2026-03-17T23:24:54.000Z</time>
	<hdop>1.80</hdop>
	<extensions>
		<gpxtpx:TrackPointExtension>
			<gpxtpx:course>358.53</gpxtpx:course>
		</gpxtpx:TrackPointExtension>
	</extensions>
</trkpt>
<trkpt lat="-9.1280700" lon="148.2728450">
	<ele>788.86</ele>
	<time>2026-03-17T23:25:01.000Z</time>
	<hdop>1.70</hdop>
	<extensions>
		<gpxtpx:TrackPointExtension>
			<gpxtpx:course>7.33</gpxtpx:course>
		</gpxtpx:TrackPointExtension>
	</extensions>
</trkpt>
<trkpt lat="-9.1279767" lon="148.2728550">
	<ele>789.65</ele>
	<time>2026-03-17T23:25:09.000Z</time>
	<hdop>1.60</hdop>
	<extensions>
		<gpxtpx:TrackPointExtension>
			<gpxtpx:course>357.52</gpxtpx:course>
		</gpxtpx:TrackPointExtension>
	</extensions>
</trkpt>
<trkpt lat="-9.1278817" lon="148.2728667">
	<ele>791.87</ele>
	<time>2026-03-17T23:25:18.000Z</time>
	<hdop>1.80</hdop>
	<extensions>
		<gpxtpx:TrackPointExtension>
			<gpxtpx:course>347.65</gpxtpx:course>
		</gpxtpx:TrackPointExtension>
	</extensions>
</trkpt>
<trkpt lat="-9.1277883" lon="148.2728850">
	<ele>792.38</ele>
	<time>2026-03-17T23:25:27.000Z</time>
	<hdop>1.90</hdop>
	<extensions>
		<gpxtpx:TrackPointExtension>
			<gpxtpx:course>348.46</gpxtpx:course>
		</gpxtpx:TrackPointExtension>
	</extensions>
</trkpt>
<trkpt lat="-9.1276950" lon="148.2728900">
	<ele>791.42</ele>
	<time>2026-03-17T23:25:35.000Z</time>
	<hdop>1.60</hdop>
	<extensions>
		<gpxtpx:TrackPointExtension>
			<gpxtpx:course>4.1</gpxtpx:course>
		</gpxtpx:TrackPointExtension>
	</extensions>
</trkpt>
<trkpt lat="-9.1275983" lon="148.2729050">
	<ele>791.28</ele>
	<time>2026-03-17T23:25:44.000Z</time>
	<hdop>1.70</hdop>
	<extensions>
		<gpxtpx:TrackPointExtension>
			<gpxtpx:course>358.12</gpxtpx:course>
		</gpxtpx:TrackPointExtension>
	</extensions>
</trkpt>
<trkpt lat="-9.1275067" lon="148.2729167">
	<ele>790.05</ele>
	<time>2026-03-17T23:25:53.000Z</time>
	<hdop>1.90</hdop>
	<extensions>
		<gpxtpx:TrackPointExtension>
			<gpxtpx:course>19.55</gpxtpx:course>
		</gpxtpx:TrackPointExtension>
	</extensions>
</trkpt>
<trkpt lat="-9.1274067" lon="148.2729267">
	<ele>789.92</ele>
	<time>2026-03-17T23:26:03.000Z</time>
	<hdop>1.80</hdop>
	<extensions>
		<gpxtpx:TrackPointExtension>
			<gpxtpx:course>7.27</gpxtpx:course>
		</gpxtpx:TrackPointExtension>
	</extensions>
</trkpt>
<trkpt lat="-9.1273100" lon="148.2729383">
	<ele>790.61</ele>
	<time>2026-03-17T23:26:13.000Z</time>
	<hdop>1.60</hdop>
	<extensions>
		<gpxtpx:TrackPointExtension>
			<gpxtpx:course>12.54</gpxtpx:course>
		</gpxtpx:TrackPointExtension>
	</extensions>
</trkpt>
<trkpt lat="-9.1272117" lon="148.2729450">
	<ele>790.81</ele>
	<time>2026-03-17T23:26:22.000Z</time>
	<hdop>1.50</hdop>
	<extensions>
		<gpxtpx:TrackPointExtension>
			<gpxtpx:course>7.71</gpxtpx:course>
		</gpxtpx:TrackPointExtension>
	</extensions>
</trkpt>
<trkpt lat="-9.1271083" lon="148.2729583">
	<ele>789.66</ele>
	<time>2026-03-17T23:26:30.000Z</time>
	<hdop>1.50</hdop>
	<extensions>
		<gpxtpx:TrackPointExtension>
			<gpxtpx:course>14.45</gpxtpx:course>
		</gpxtpx:TrackPointExtension>
	</extensions>
</trkpt>
<trkpt lat="-9.1270067" lon="148.2729733">
	<ele>787.94</ele>
	<time>2026-03-17T23:26:39.000Z</time>
	<hdop>1.50</hdop>
	<extensions>
		<gpxtpx:TrackPointExtension>
			<gpxtpx:course>3.34</gpxtpx:course>
		</gpxtpx:TrackPointExtension>
	</extensions>
</trkpt>
<trkpt lat="-9.1269167" lon="148.2729867">
	<ele>787.63</ele>
	<time>2026-03-17T23:26:48.000Z</time>
	<hdop>1.50</hdop>
	<extensions>
		<gpxtpx:TrackPointExtension>
			<gpxtpx:course>5.9</gpxtpx:course>
		</gpxtpx:TrackPointExtension>
	</extensions>
</trkpt>
<trkpt lat="-9.1268183" lon="148.2729917">
	<ele>789.33</ele>
	<time>2026-03-17T23:26:58.000Z</time>
	<hdop>1.60</hdop>
	<extensions>
		<gpxtpx:TrackPointExtension>
			<gpxtpx:course>19.24</gpxtpx:course>
		</gpxtpx:TrackPointExtension>
	</extensions>
</trkpt>
<trkpt lat="-9.1267217" lon="148.2730050">
	<ele>791.07</ele>
	<time>2026-03-17T23:27:05.000Z</time>
	<hdop>1.70</hdop>
	<extensions>
		<gpxtpx:TrackPointExtension>
			<gpxtpx:course>20.77</gpxtpx:course>
		</gpxtpx:TrackPointExtension>
	</extensions>
</trkpt>
<trkpt lat="-9.1266217" lon="148.2730317">
	<ele>791.68</ele>
	<time>2026-03-17T23:27:12.000Z</time>
	<hdop>1.70</hdop>
	<extensions>
		<gpxtpx:TrackPointExtension>
			<gpxtpx:course>12.44</gpxtpx:course>
		</gpxtpx:TrackPointExtension>
	</extensions>
</trkpt>
<trkpt lat="-9.1265317" lon="148.2730800">
	<ele>789.59</ele>
	<time>2026-03-17T23:27:21.000Z</time>
	<hdop>1.70</hdop>
	<extensions>
		<gpxtpx:TrackPointExtension>
			<gpxtpx:course>6.26</gpxtpx:course>
		</gpxtpx:TrackPointExtension>
	</extensions>
</trkpt>
<trkpt lat="-9.1264433" lon="148.2731000">
	<ele>786.72</ele>
	<time>2026-03-17T23:27:30.000Z</time>
	<hdop>1.70</hdop>
	<extensions>
		<gpxtpx:TrackPointExtension>
			<gpxtpx:course>2.3</gpxtpx:course>
		</gpxtpx:TrackPointExtension>
	</extensions>
</trkpt>
<trkpt lat="-9.1263517" lon="148.2730850">
	<ele>789.25</ele>
	<time>2026-03-17T23:27:38.000Z</time>
	<hdop>1.60</hdop>
	<extensions>
		<gpxtpx:TrackPointExtension>
			<gpxtpx:course>352.79</gpxtpx:course>
		</gpxtpx:TrackPointExtension>
	</extensions>
</trkpt>
<trkpt lat="-9.1262533" lon="148.2730817">
	<ele>788.12</ele>
	<time>2026-03-17T23:27:46.000Z</time>
	<hdop>1.50</hdop>
	<extensions>
		<gpxtpx:TrackPointExtension>
			<gpxtpx:course>15.99</gpxtpx:course>
		</gpxtpx:TrackPointExtension>
	</extensions>
</trkpt>
<trkpt lat="-9.1261600" lon="148.2730883">
	<ele>788.12</ele>
	<time>2026-03-17T23:27:56.000Z</time>
	<hdop>1.60</hdop>
	<extensions>
		<gpxtpx:TrackPointExtension>
			<gpxtpx:course>351.58</gpxtpx:course>
		</gpxtpx:TrackPointExtension>
	</extensions>
</trkpt>
<trkpt lat="-9.1260600" lon="148.2731067">
	<ele>787.88</ele>
	<time>2026-03-17T23:28:05.000Z</time>
	<hdop>1.60</hdop>
	<extensions>
		<gpxtpx:TrackPointExtension>
			<gpxtpx:course>12.34</gpxtpx:course>
		</gpxtpx:TrackPointExtension>
	</extensions>
</trkpt>
<trkpt lat="-9.1259700" lon="148.2731333">
	<ele>787.87</ele>
	<time>2026-03-17T23:28:13.000Z</time>
	<hdop>1.60</hdop>
	<extensions>
		<gpxtpx:TrackPointExtension>
			<gpxtpx:course>23.79</gpxtpx:course>
		</gpxtpx:TrackPointExtension>
	</extensions>
</trkpt>
<trkpt lat="-9.1258867" lon="148.2731700">
	<ele>787.44</ele>
	<time>2026-03-17T23:28:23.000Z</time>
	<hdop>1.70</hdop>
	<extensions>
		<gpxtpx:TrackPointExtension>
			<gpxtpx:course>30.83</gpxtpx:course>
		</gpxtpx:TrackPointExtension>
	</extensions>
</trkpt>
<trkpt lat="-9.1258133" lon="148.2732333">
	<ele>790.71</ele>
	<time>2026-03-17T23:28:31.000Z</time>
	<hdop>1.80</hdop>
	<extensions>
		<gpxtpx:TrackPointExtension>
			<gpxtpx:course>18.22</gpxtpx:course>
		</gpxtpx:TrackPointExtension>
	</extensions>
</trkpt>
<trkpt lat="-9.1257267" lon="148.2732733">
	<ele>791.17</ele>
	<time>2026-03-17T23:28:38.000Z</time>
	<hdop>1.70</hdop>
	<extensions>
		<gpxtpx:TrackPointExtension>
			<gpxtpx:course>25.96</gpxtpx:course>
		</gpxtpx:TrackPointExtension>
	</extensions>
</trkpt>
<trkpt lat="-9.1256467" lon="148.2733183">
	<ele>793.21</ele>
	<time>2026-03-17T23:28:48.000Z</time>
	<hdop>1.80</hdop>
	<extensions>
		<gpxtpx:TrackPointExtension>
			<gpxtpx:course>32.83</gpxtpx:course>
		</gpxtpx:TrackPointExtension>
	</extensions>
</trkpt>
<trkpt lat="-9.1255550" lon="148.2733583">
	<ele>792.80</ele>
	<time>2026-03-17T23:28:55.000Z</time>
	<hdop>1.80</hdop>
	<extensions>
		<gpxtpx:TrackPointExtension>
			<gpxtpx:course>49.44</gpxtpx:course>
		</gpxtpx:TrackPointExtension>
	</extensions>
</trkpt>
<trkpt lat="-9.1254850" lon="148.2734250">
	<ele>791.20</ele>
	<time>2026-03-17T23:29:03.000Z</time>
	<hdop>1.80</hdop>
	<extensions>
		<gpxtpx:TrackPointExtension>
			<gpxtpx:course>57.5</gpxtpx:course>
		</gpxtpx:TrackPointExtension>
	</extensions>
</trkpt>
<trkpt lat="-9.1253933" lon="148.2734633">
	<ele>789.57</ele>
	<time>2026-03-17T23:29:11.000Z</time>
	<hdop>1.90</hdop>
	<extensions>
		<gpxtpx:TrackPointExtension>
			<gpxtpx:course>28.83</gpxtpx:course>
		</gpxtpx:TrackPointExtension>
	</extensions>
</trkpt>
<trkpt lat="-9.1253000" lon="148.2734883">
	<ele>791.87</ele>
	<time>2026-03-17T23:29:20.000Z</time>
	<hdop>1.90</hdop>
	<extensions>
		<gpxtpx:TrackPointExtension>
			<gpxtpx:course>6.36</gpxtpx:course>
		</gpxtpx:TrackPointExtension>
	</extensions>
</trkpt>
<trkpt lat="-9.1252067" lon="148.2734933">
	<ele>795.58</ele>
	<time>2026-03-17T23:29:27.000Z</time>
	<hdop>1.90</hdop>
	<extensions>
		<gpxtpx:TrackPointExtension>
			<gpxtpx:course>347.33</gpxtpx:course>
		</gpxtpx:TrackPointExtension>
	</extensions>
</trkpt>
<trkpt lat="-9.1251150" lon="148.2734950">
	<ele>796.12</ele>
	<time>2026-03-17T23:29:34.000Z</time>
	<hdop>1.80</hdop>
	<extensions>
		<gpxtpx:TrackPointExtension>
			<gpxtpx:course>359.98</gpxtpx:course>
		</gpxtpx:TrackPointExtension>
	</extensions>
</trkpt>
<trkpt lat="-9.1250233" lon="148.2735183">
	<ele>795.70</ele>
	<time>2026-03-17T23:29:40.000Z</time>
	<hdop>1.70</hdop>
	<extensions>
		<gpxtpx:TrackPointExtension>
			<gpxtpx:course>355.65</gpxtpx:course>
		</gpxtpx:TrackPointExtension>
	</extensions>
</trkpt>
<trkpt lat="-9.1249317" lon="148.2735333">
	<ele>797.04</ele>
	<time>2026-03-17T23:29:47.000Z</time>
	<hdop>1.80</hdop>
	<extensions>
		<gpxtpx:TrackPointExtension>
			<gpxtpx:course>31.67</gpxtpx:course>
		</gpxtpx:TrackPointExtension>
	</extensions>
</trkpt>
<trkpt lat="-9.1248450" lon="148.2735833">
	<ele>792.18</ele>
	<time>2026-03-17T23:29:56.000Z</time>
	<hdop>1.60</hdop>
	<extensions>
		<gpxtpx:TrackPointExtension>
			<gpxtpx:course>18.34</gpxtpx:course>
		</gpxtpx:TrackPointExtension>
	</extensions>
</trkpt>
<trkpt lat="-9.1247617" lon="148.2736283">
	<ele>792.20</ele>
	<time>2026-03-17T23:31:15.000Z</time>
	<hdop>1.60</hdop>
	<extensions>
		<gpxtpx:TrackPointExtension>
			<gpxtpx:course>57.06</gpxtpx:course>
		</gpxtpx:TrackPointExtension>
	</extensions>
</trkpt>
<trkpt lat="-9.1246750" lon="148.2736550">
	<ele>785.80</ele>
	<time>2026-03-17T23:32:00.000Z</time>
	<hdop>1.50</hdop>
	<extensions>
		<gpxtpx:TrackPointExtension>
			<gpxtpx:course>357.4</gpxtpx:course>
		</gpxtpx:TrackPointExtension>
	</extensions>
</trkpt>
<trkpt lat="-9.1245800" lon="148.2736667">
	<ele>789.27</ele>
	<time>2026-03-17T23:32:15.000Z</time>
	<hdop>1.60</hdop>
	<extensions>
		<gpxtpx:TrackPointExtension>
			<gpxtpx:course>350.57</gpxtpx:course>
		</gpxtpx:TrackPointExtension>
	</extensions>
</trkpt>
<trkpt lat="-9.1244917" lon="148.2736233">
	<ele>788.49</ele>
	<time>2026-03-17T23:32:22.000Z</time>
	<hdop>1.60</hdop>
	<extensions>
		<gpxtpx:TrackPointExtension>
			<gpxtpx:course>343.29</gpxtpx:course>
		</gpxtpx:TrackPointExtension>
	</extensions>
</trkpt>
<trkpt lat="-9.1244017" lon="148.2735883">
	<ele>787.94</ele>
	<time>2026-03-17T23:32:29.000Z</time>
	<hdop>1.60</hdop>
	<extensions>
		<gpxtpx:TrackPointExtension>
			<gpxtpx:course>351.31</gpxtpx:course>
		</gpxtpx:TrackPointExtension>
	</extensions>
</trkpt>
<trkpt lat="-9.1243100" lon="148.2735650">
	<ele>786.66</ele>
	<time>2026-03-17T23:32:37.000Z</time>
	<hdop>1.50</hdop>
	<extensions>
		<gpxtpx:TrackPointExtension>
			<gpxtpx:course>337.35</gpxtpx:course>
		</gpxtpx:TrackPointExtension>
	</extensions>
</trkpt>
<trkpt lat="-9.1242150" lon="148.2735450">
	<ele>785.83</ele>
	<time>2026-03-17T23:32:46.000Z</time>
	<hdop>1.40</hdop>
	<extensions>
		<gpxtpx:TrackPointExtension>
			<gpxtpx:course>2.19</gpxtpx:course>
		</gpxtpx:TrackPointExtension>
	</extensions>
</trkpt>
<trkpt lat="-9.1241150" lon="148.2735333">
	<ele>785.33</ele>
	<time>2026-03-17T23:32:55.000Z</time>
	<hdop>1.50</hdop>
	<extensions>
		<gpxtpx:TrackPointExtension>
			<gpxtpx:course>356.14</gpxtpx:course>
		</gpxtpx:TrackPointExtension>
	</extensions>
</trkpt>
<trkpt lat="-9.1240150" lon="148.2735250">
	<ele>786.93</ele>
	<time>2026-03-17T23:33:04.000Z</time>
	<hdop>1.50</hdop>
	<extensions>
		<gpxtpx:TrackPointExtension>
			<gpxtpx:course>349.35</gpxtpx:course>
		</gpxtpx:TrackPointExtension>
	</extensions>
</trkpt>
<trkpt lat="-9.1239233" lon="148.2735150">
	<ele>788.02</ele>
	<time>2026-03-17T23:33:12.000Z</time>
	<hdop>1.50</hdop>
	<extensions>
		<gpxtpx:TrackPointExtension>
			<gpxtpx:course>1.81</gpxtpx:course>
		</gpxtpx:TrackPointExtension>
	</extensions>
</trkpt>
<trkpt lat="-9.1238300" lon="148.2735133">
	<ele>788.60</ele>
	<time>2026-03-17T23:33:22.000Z</time>
	<hdop>1.50</hdop>
	<extensions>
		<gpxtpx:TrackPointExtension>
			<gpxtpx:course>8.69</gpxtpx:course>
		</gpxtpx:TrackPointExtension>
	</extensions>
</trkpt>
<trkpt lat="-9.1237300" lon="148.2735133">
	<ele>788.43</ele>
	<time>2026-03-17T23:33:31.000Z</time>
	<hdop>1.50</hdop>
	<extensions>
		<gpxtpx:TrackPointExtension>
			<gpxtpx:course>357.45</gpxtpx:course>
		</gpxtpx:TrackPointExtension>
	</extensions>
</trkpt>
<trkpt lat="-9.1236367" lon="148.2735183">
	<ele>787.69</ele>
	<time>2026-03-17T23:33:39.000Z</time>
	<hdop>1.50</hdop>
	<extensions>
		<gpxtpx:TrackPointExtension>
			<gpxtpx:course>354.09</gpxtpx:course>
		</gpxtpx:TrackPointExtension>
	</extensions>
</trkpt>
<trkpt lat="-9.1235350" lon="148.2735267">
	<ele>788.66</ele>
	<time>2026-03-17T23:33:48.000Z</time>
	<hdop>1.50</hdop>
	<extensions>
		<gpxtpx:TrackPointExtension>
			<gpxtpx:course>5.88</gpxtpx:course>
		</gpxtpx:TrackPointExtension>
	</extensions>
</trkpt>
<trkpt lat="-9.1234433" lon="148.2735250">
	<ele>788.26</ele>
	<time>2026-03-17T23:33:56.000Z</time>
	<hdop>1.50</hdop>
	<extensions>
		<gpxtpx:TrackPointExtension>
			<gpxtpx:course>354.58</gpxtpx:course>
		</gpxtpx:TrackPointExtension>
	</extensions>
</trkpt>
<trkpt lat="-9.1233433" lon="148.2735217">
	<ele>787.56</ele>
	<time>2026-03-17T23:34:05.000Z</time>
	<hdop>1.50</hdop>
	<extensions>
		<gpxtpx:TrackPointExtension>
			<gpxtpx:course>355.11</gpxtpx:course>
		</gpxtpx:TrackPointExtension>
	</extensions>
</trkpt>
<trkpt lat="-9.1232500" lon="148.2735367">
	<ele>787.41</ele>
	<time>2026-03-17T23:34:12.000Z</time>
	<hdop>1.50</hdop>
	<extensions>
		<gpxtpx:TrackPointExtension>
			<gpxtpx:course>8.35</gpxtpx:course>
		</gpxtpx:TrackPointExtension>
	</extensions>
</trkpt>
<trkpt lat="-9.1231533" lon="148.2735317">
	<ele>788.98</ele>
	<time>2026-03-17T23:34:20.000Z</time>
	<hdop>1.50</hdop>
	<extensions>
		<gpxtpx:TrackPointExtension>
			<gpxtpx:course>12.29</gpxtpx:course>
		</gpxtpx:TrackPointExtension>
	</extensions>
</trkpt>
<trkpt lat="-9.1230617" lon="148.2735417">
	<ele>788.86</ele>
	<time>2026-03-17T23:34:28.000Z</time>
	<hdop>1.50</hdop>
	<extensions>
		<gpxtpx:TrackPointExtension>
			<gpxtpx:course>10.46</gpxtpx:course>
		</gpxtpx:TrackPointExtension>
	</extensions>
</trkpt>
<trkpt lat="-9.1229617" lon="148.2735367">
	<ele>790.78</ele>
	<time>2026-03-17T23:34:37.000Z</time>
	<hdop>1.40</hdop>
	<extensions>
		<gpxtpx:TrackPointExtension>
			<gpxtpx:course>356.1</gpxtpx:course>
		</gpxtpx:TrackPointExtension>
	</extensions>
</trkpt>
<trkpt lat="-9.1228683" lon="148.2735450">
	<ele>789.56</ele>
	<time>2026-03-17T23:34:46.000Z</time>
	<hdop>1.40</hdop>
	<extensions>
		<gpxtpx:TrackPointExtension>
			<gpxtpx:course>8.7</gpxtpx:course>
		</gpxtpx:TrackPointExtension>
	</extensions>
</trkpt>
<trkpt lat="-9.1227783" lon="148.2735667">
	<ele>786.93</ele>
	<time>2026-03-17T23:34:54.000Z</time>
	<hdop>1.40</hdop>
	<extensions>
		<gpxtpx:TrackPointExtension>
			<gpxtpx:course>12.97</gpxtpx:course>
		</gpxtpx:TrackPointExtension>
	</extensions>
</trkpt>
<trkpt lat="-9.1226800" lon="148.2735800">
	<ele>785.65</ele>
	<time>2026-03-17T23:35:03.000Z</time>
	<hdop>1.40</hdop>
	<extensions>
		<gpxtpx:TrackPointExtension>
			<gpxtpx:course>7.7</gpxtpx:course>
		</gpxtpx:TrackPointExtension>
	</extensions>
</trkpt>
<trkpt lat="-9.1225767" lon="148.2735967">
	<ele>784.86</ele>
	<time>2026-03-17T23:35:12.000Z</time>
	<hdop>1.50</hdop>
	<extensions>
		<gpxtpx:TrackPointExtension>
			<gpxtpx:course>14.38</gpxtpx:course>
		</gpxtpx:TrackPointExtension>
	</extensions>
</trkpt>
<trkpt lat="-9.1224817" lon="148.2736167">
	<ele>783.14</ele>
	<time>2026-03-17T23:35:21.000Z</time>
	<hdop>1.50</hdop>
	<extensions>
		<gpxtpx:TrackPointExtension>
			<gpxtpx:course>6.96</gpxtpx:course>
		</gpxtpx:TrackPointExtension>
	</extensions>
</trkpt>
<trkpt lat="-9.1223833" lon="148.2736367">
	<ele>782.75</ele>
	<time>2026-03-17T23:35:30.000Z</time>
	<hdop>1.50</hdop>
	<extensions>
		<gpxtpx:TrackPointExtension>
			<gpxtpx:course>21.55</gpxtpx:course>
		</gpxtpx:TrackPointExtension>
	</extensions>
</trkpt>
<trkpt lat="-9.1222867" lon="148.2736667">
	<ele>782.29</ele>
	<time>2026-03-17T23:35:38.000Z</time>
	<hdop>1.50</hdop>
	<extensions>
		<gpxtpx:TrackPointExtension>
			<gpxtpx:course>19.83</gpxtpx:course>
		</gpxtpx:TrackPointExtension>
	</extensions>
</trkpt>
<trkpt lat="-9.1221967" lon="148.2736900">
	<ele>780.74</ele>
	<time>2026-03-17T23:35:46.000Z</time>
	<hdop>1.40</hdop>
	<extensions>
		<gpxtpx:TrackPointExtension>
			<gpxtpx:course>359.02</gpxtpx:course>
		</gpxtpx:TrackPointExtension>
	</extensions>
</trkpt>
<trkpt lat="-9.1221033" lon="148.2736833">
	<ele>782.05</ele>
	<time>2026-03-17T23:36:04.000Z</time>
	<hdop>1.40</hdop>
	<extensions>
		<gpxtpx:TrackPointExtension>
			<gpxtpx:course>215.29</gpxtpx:course>
		</gpxtpx:TrackPointExtension>
	</extensions>
</trkpt>
<trkpt lat="-9.1220100" lon="148.2736850">
	<ele>782.60</ele>
	<time>2026-03-17T23:36:15.000Z</time>
	<hdop>1.40</hdop>
	<extensions>
		<gpxtpx:TrackPointExtension>
			<gpxtpx:course>354.6</gpxtpx:course>
		</gpxtpx:TrackPointExtension>
	</extensions>
</trkpt>
<trkpt lat="-9.1219117" lon="148.2736700">
	<ele>783.35</ele>
	<time>2026-03-17T23:36:36.000Z</time>
	<hdop>1.60</hdop>
	<extensions>
		<gpxtpx:TrackPointExtension>
			<gpxtpx:course>333.51</gpxtpx:course>
		</gpxtpx:TrackPointExtension>
	</extensions>
</trkpt>
<trkpt lat="-9.1218200" lon="148.2736650">
	<ele>782.07</ele>
	<time>2026-03-17T23:36:52.000Z</time>
	<hdop>1.50</hdop>
	<extensions>
		<gpxtpx:TrackPointExtension>
			<gpxtpx:course>351.49</gpxtpx:course>
		</gpxtpx:TrackPointExtension>
	</extensions>
</trkpt>
<trkpt lat="-9.1217217" lon="148.2736583">
	<ele>781.76</ele>
	<time>2026-03-17T23:37:03.000Z</time>
	<hdop>1.60</hdop>
	<extensions>
		<gpxtpx:TrackPointExtension>
			<gpxtpx:course>28.01</gpxtpx:course>
		</gpxtpx:TrackPointExtension>
	</extensions>
</trkpt>
<trkpt lat="-9.1216200" lon="148.2736500">
	<ele>784.51</ele>
	<time>2026-03-17T23:37:13.000Z</time>
	<hdop>1.50</hdop>
	<extensions>
		<gpxtpx:TrackPointExtension>
			<gpxtpx:course>6.98</gpxtpx:course>
		</gpxtpx:TrackPointExtension>
	</extensions>
</trkpt>
<trkpt lat="-9.1215283" lon="148.2736500">
	<ele>786.31</ele>
	<time>2026-03-17T23:37:21.000Z</time>
	<hdop>1.60</hdop>
	<extensions>
		<gpxtpx:TrackPointExtension>
			<gpxtpx:course>15.65</gpxtpx:course>
		</gpxtpx:TrackPointExtension>
	</extensions>
</trkpt>
<trkpt lat="-9.1214350" lon="148.2736550">
	<ele>786.88</ele>
	<time>2026-03-17T23:37:31.000Z</time>
	<hdop>1.50</hdop>
	<extensions>
		<gpxtpx:TrackPointExtension>
			<gpxtpx:course>115.48</gpxtpx:course>
		</gpxtpx:TrackPointExtension>
	</extensions>
</trkpt>
<trkpt lat="-9.1213417" lon="148.2736567">
	<ele>787.74</ele>
	<time>2026-03-17T23:37:40.000Z</time>
	<hdop>1.50</hdop>
	<extensions>
		<gpxtpx:TrackPointExtension>
			<gpxtpx:course>2.53</gpxtpx:course>
		</gpxtpx:TrackPointExtension>
	</extensions>
</trkpt>
<trkpt lat="-9.1212500" lon="148.2736533">
	<ele>787.78</ele>
	<time>2026-03-17T23:37:47.000Z</time>
	<hdop>1.60</hdop>
	<extensions>
		<gpxtpx:TrackPointExtension>
			<gpxtpx:course>3.61</gpxtpx:course>
		</gpxtpx:TrackPointExtension>
	</extensions>
</trkpt>
<trkpt lat="-9.1211600" lon="148.2736367">
	<ele>789.16</ele>
	<time>2026-03-17T23:37:57.000Z</time>
	<hdop>1.40</hdop>
	<extensions>
		<gpxtpx:TrackPointExtension>
			<gpxtpx:course>342.6</gpxtpx:course>
		</gpxtpx:TrackPointExtension>
	</extensions>
</trkpt>
<trkpt lat="-9.1211117" lon="148.2735567">
	<ele>786.68</ele>
	<time>2026-03-17T23:39:02.000Z</time>
	<hdop>1.40</hdop>
	<extensions>
		<gpxtpx:TrackPointExtension>
			<gpxtpx:course>252.4</gpxtpx:course>
		</gpxtpx:TrackPointExtension>
	</extensions>
</trkpt>
<trkpt lat="-9.1211867" lon="148.2735050">
	<ele>788.00</ele>
	<time>2026-03-17T23:39:14.000Z</time>
	<hdop>1.20</hdop>
	<extensions>
		<gpxtpx:TrackPointExtension>
			<gpxtpx:course>193.7</gpxtpx:course>
		</gpxtpx:TrackPointExtension>
	</extensions>
</trkpt>
<trkpt lat="-9.1212783" lon="148.2734950">
	<ele>788.42</ele>
	<time>2026-03-17T23:39:20.000Z</time>
	<hdop>1.40</hdop>
	<extensions>
		<gpxtpx:TrackPointExtension>
			<gpxtpx:course>205.35</gpxtpx:course>
		</gpxtpx:TrackPointExtension>
	</extensions>
</trkpt>
<trkpt lat="-9.1213317" lon="148.2734167">
	<ele>788.69</ele>
	<time>2026-03-17T23:39:30.000Z</time>
	<hdop>1.50</hdop>
	<extensions>
		<gpxtpx:TrackPointExtension>
			<gpxtpx:course>251.19</gpxtpx:course>
		</gpxtpx:TrackPointExtension>
	</extensions>
</trkpt>
<trkpt lat="-9.1213683" lon="148.2733333">
	<ele>791.14</ele>
	<time>2026-03-17T23:39:38.000Z</time>
	<hdop>1.40</hdop>
	<extensions>
		<gpxtpx:TrackPointExtension>
			<gpxtpx:course>232.48</gpxtpx:course>
		</gpxtpx:TrackPointExtension>
	</extensions>
</trkpt>
</trkseg>
</trk>
</gpx>
