{
  "type": "FeatureCollection",
  "features": [
    {
      "type": "Feature",
      "properties": {
        "WDPAID": 555651673,
        "WDPA_PID": "555651673",
        "NAME": "Managalas",
        "DESIG": "Conservation Area",
        "DESIG_TYPE": "National",
        "IUCN_CAT": "Not Reported",
        "STATUS": "Designated",
        "STATUS_YR": 2017,
        "GOV_TYPE": "Local communities",
        "OWN_TYPE": "Communal",
        "GIS_AREA_KM2": 2146.9616065071,
        "ISO3": "PNG",
        "VERIF": "State Verified"
      },
      "geometry": {
        "type": "Polygon",
        "coordinates": [
          [
            [
              148.369317991,
              -8.86170203899997
            ],
            [
              148.37063798,
              -8.86258003999995
            ],
            [
              148.377453995,
              -8.86258003199993
            ],
            [
              148.38163202,
              -8.86323896799996
            ],
            [
              148.386249011,
              -8.86411700299993
            ],
            [
              148.391525992,
              -8.86455603299993
            ],
            [
              148.393945037,
              -8.86455596999997
            ],
            [
              148.398561991,
              -8.86609201099998
            ],
            [
              148.400320989,
              -8.86850698199993
            ],
            [
              148.401860008,
              -8.87004400999996
            ],
            [
              148.40603797,
              -8.87223902999995
            ],
            [
              148.411535014,
              -8.87377500799994
            ],
            [
              148.415053023,
              -8.87531198599993
            ],
            [
              148.416151999,
              -8.87553103299996
            ],
            [
              148.418571037,
              -8.87575102999995
            ],
            [
              148.421209,
              -8.87684802299998
            ],
            [
              148.423188003,
              -8.87992098899997
            ],
            [
              148.426486018,
              -8.88453095599994
            ],
            [
              148.426925965,
              -8.88716497399997
            ],
            [
              148.426486,
              -8.89045699099995
            ],
            [
              148.426045986,
              -8.89265201899997
            ],
            [
              148.426705965,
              -8.89748197299997
            ],
            [
              148.427366014,
              -8.90209096799998
            ],
            [
              148.426486031,
              -8.90560300299995
            ],
            [
              148.426485968,
              -8.91130997799996
            ],
            [
              148.426486023,
              -8.91482198199998
            ],
            [
              148.426485967,
              -8.91921200999997
            ],
            [
              148.426486016,
              -8.92491997599996
            ],
            [
              148.426550968,
              -8.92608198599993
            ],
            [
              148.427072014,
              -8.92598198299993
            ],
            [
              148.43170903,
              -8.93781099599994
            ],
            [
              148.431194018,
              -8.94295499299994
            ],
            [
              148.431194001,
              -8.94604099399993
            ],
            [
              148.431194029,
              -8.95324199099997
            ],
            [
              148.431194031,
              -8.96249998599995
            ],
            [
              148.431193967,
              -8.96918602599993
            ],
            [
              148.431194023,
              -8.97432902099996
            ],
            [
              148.433254024,
              -8.98050097399994
            ],
            [
              148.433254023,
              -8.98101601399998
            ],
            [
              148.433253988,
              -8.98564495699998
            ],
            [
              148.433254027,
              -8.99284502899997
            ],
            [
              148.431724993,
              -8.99704397799997
            ],
            [
              148.43198297,
              -8.99757401699998
            ],
            [
              148.435280979,
              -9.00152500599995
            ],
            [
              148.454410002,
              -9.00723295699993
            ],
            [
              148.459466964,
              -9.01074503699994
            ],
            [
              148.465403982,
              -9.01228099799994
            ],
            [
              148.475738017,
              -9.02084195899994
            ],
            [
              148.485851965,
              -9.02545100899994
            ],
            [
              148.486199018,
              -9.02536399299993
            ],
            [
              148.486511984,
              -9.02501196199995
            ],
            [
              148.487924025,
              -9.02493401299995
            ],
            [
              148.492888019,
              -9.02369496899996
            ],
            [
              148.495307036,
              -9.02742699699996
            ],
            [
              148.496846017,
              -9.02479298799994
            ],
            [
              148.498824984,
              -9.02918301299997
            ],
            [
              148.497876006,
              -9.02958899799995
            ],
            [
              148.498605029,
              -9.03006099899994
            ],
            [
              148.498825016,
              -9.03027995999997
            ],
            [
              148.50014402,
              -9.03050003699997
            ],
            [
              148.502562974,
              -9.03335400799995
            ],
            [
              148.512677037,
              -9.03752402699996
            ],
            [
              148.51443601,
              -9.04498696399997
            ],
            [
              148.516194996,
              -9.04893803299996
            ],
            [
              148.517734031,
              -9.05288900499994
            ],
            [
              148.517513974,
              -9.05859599299993
            ],
            [
              148.517293974,
              -9.06167002599994
            ],
            [
              148.521691986,
              -9.06891300599995
            ],
            [
              148.524550003,
              -9.07198596099994
            ],
            [
              148.529607017,
              -9.07396197799994
            ],
            [
              148.535984037,
              -9.07593697899995
            ],
            [
              148.540160966,
              -9.07791300499997
            ],
            [
              148.542139992,
              -9.08142504199998
            ],
            [
              148.545217997,
              -9.08779096899997
            ],
            [
              148.546977029,
              -9.09042501899995
            ],
            [
              148.547637027,
              -9.09481496099994
            ],
            [
              148.554233024,
              -9.10996003199995
            ],
            [
              148.559510007,
              -9.12115500699997
            ],
            [
              148.562148997,
              -9.12817903899997
            ],
            [
              148.563248034,
              -9.13278903499997
            ],
            [
              148.566106012,
              -9.14464202099998
            ],
            [
              148.57160301,
              -9.15188598099996
            ],
            [
              148.574242014,
              -9.15737296399993
            ],
            [
              148.577099984,
              -9.16242196899998
            ],
            [
              148.581278029,
              -9.16659200899994
            ],
            [
              148.584795999,
              -9.17010397199994
            ],
            [
              148.587213966,
              -9.17581197899995
            ],
            [
              148.585675025,
              -9.17844598599993
            ],
            [
              148.585675026,
              -9.18217700399993
            ],
            [
              148.581937014,
              -9.18481097699993
            ],
            [
              148.576880013,
              -9.18085997099996
            ],
            [
              148.57446203,
              -9.17910402999996
            ],
            [
              148.571382988,
              -9.17888501599998
            ],
            [
              148.568744987,
              -9.17844601699994
            ],
            [
              148.561929022,
              -9.17690900699995
            ],
            [
              148.559070014,
              -9.17625103699993
            ],
            [
              148.552913983,
              -9.17493401199994
            ],
            [
              148.548736023,
              -9.17427501899994
            ],
            [
              148.546098035,
              -9.17603103299996
            ],
            [
              148.543019989,
              -9.18195799099993
            ],
            [
              148.541260976,
              -9.18393297299997
            ],
            [
              148.537522978,
              -9.19073797999994
            ],
            [
              148.535324002,
              -9.19578599499994
            ],
            [
              148.533784976,
              -9.20215204199997
            ],
            [
              148.533124965,
              -9.20983500999995
            ],
            [
              148.531145989,
              -9.21510302599995
            ],
            [
              148.527628004,
              -9.21993199099995
            ],
            [
              148.524110005,
              -9.22476102599995
            ],
            [
              148.520152971,
              -9.22827303699995
            ],
            [
              148.51711102,
              -9.22892402799994
            ],
            [
              148.516853991,
              -9.22959001299995
            ],
            [
              148.515754974,
              -9.23046801399994
            ],
            [
              148.512236973,
              -9.23178497299995
            ],
            [
              148.508059017,
              -9.23573598599995
            ],
            [
              148.505861019,
              -9.24144303299994
            ],
            [
              148.504980973,
              -9.24627199399993
            ],
            [
              148.503221988,
              -9.24824804199994
            ],
            [
              148.50039902,
              -9.24838199099997
            ],
            [
              148.497231973,
              -9.24983496199997
            ],
            [
              148.491788999,
              -9.25044299199993
            ],
            [
              148.484533031,
              -9.25044299299998
            ],
            [
              148.475738023,
              -9.25527197999997
            ],
            [
              148.470461017,
              -9.25988196699996
            ],
            [
              148.465183963,
              -9.26317400199997
            ],
            [
              148.464744023,
              -9.26361298999996
            ],
            [
              148.460345973,
              -9.26493004099996
            ],
            [
              148.452431035,
              -9.26734498999997
            ],
            [
              148.444734994,
              -9.26822302799997
            ],
            [
              148.437699025,
              -9.26822296399996
            ],
            [
              148.432422016,
              -9.26822296099994
            ],
            [
              148.425385981,
              -9.27085704099994
            ],
            [
              148.421867967,
              -9.27590503099998
            ],
            [
              148.420989,
              -9.27853902599998
            ],
            [
              148.419229986,
              -9.28007601899998
            ],
            [
              148.417471011,
              -9.28095404499993
            ],
            [
              148.413072984,
              -9.28183201699994
            ],
            [
              148.404498002,
              -9.28205095599998
            ],
            [
              148.402299007,
              -9.28270996299995
            ],
            [
              148.398342002,
              -9.28314901199997
            ],
            [
              148.396362993,
              -9.28424703799993
            ],
            [
              148.392185026,
              -9.28775895899997
            ],
            [
              148.391085964,
              -9.29083196799996
            ],
            [
              148.390205965,
              -9.29500200999996
            ],
            [
              148.389766987,
              -9.29939200899997
            ],
            [
              148.391085995,
              -9.30180702699994
            ],
            [
              148.391964985,
              -9.30531901899997
            ],
            [
              148.390865982,
              -9.30926996099993
            ],
            [
              148.389986028,
              -9.31256297999994
            ],
            [
              148.389122977,
              -9.31259500399995
            ],
            [
              148.389326993,
              -9.31278198099994
            ],
            [
              148.382511006,
              -9.31651404199994
            ],
            [
              148.380752,
              -9.31892800999998
            ],
            [
              148.378332998,
              -9.32331800099996
            ],
            [
              148.376353991,
              -9.32529397699994
            ],
            [
              148.370417965,
              -9.32704996899997
            ],
            [
              148.361841986,
              -9.32704998399993
            ],
            [
              148.354587007,
              -9.32968401099993
            ],
            [
              148.351947992,
              -9.32968401499994
            ],
            [
              148.346010979,
              -9.32858602099998
            ],
            [
              148.338756033,
              -9.32836703299995
            ],
            [
              148.333259025,
              -9.33297603499994
            ],
            [
              148.330619978,
              -9.33582996099994
            ],
            [
              148.328201985,
              -9.34175699599996
            ],
            [
              148.324023989,
              -9.34614696899996
            ],
            [
              148.318306988,
              -9.34965897699993
            ],
            [
              148.311491001,
              -9.35141499399998
            ],
            [
              148.307093987,
              -9.35251204399998
            ],
            [
              148.299837987,
              -9.35580497199993
            ],
            [
              148.294121034,
              -9.35756099399993
            ],
            [
              148.290383034,
              -9.35887803499998
            ],
            [
              148.286644984,
              -9.36217002399997
            ],
            [
              148.28158799,
              -9.36568201799997
            ],
            [
              148.276311004,
              -9.36897495999995
            ],
            [
              148.273978033,
              -9.37060602299994
            ],
            [
              148.272717979,
              -9.37249097599994
            ],
            [
              148.269767968,
              -9.37514097799993
            ],
            [
              148.26817597,
              -9.37533997899993
            ],
            [
              148.268175974,
              -9.37534097299994
            ],
            [
              148.262679006,
              -9.37709702599994
            ],
            [
              148.259161027,
              -9.37687702199997
            ],
            [
              148.254763003,
              -9.37621899099997
            ],
            [
              148.248827023,
              -9.37577997099993
            ],
            [
              148.242889991,
              -9.37424299999998
            ],
            [
              148.238273036,
              -9.37336501299995
            ],
            [
              148.234315022,
              -9.37314602199996
            ],
            [
              148.231895975,
              -9.37358497999998
            ],
            [
              148.23145601,
              -9.37380403799995
            ],
            [
              148.228378031,
              -9.37512098299993
            ],
            [
              148.224860018,
              -9.37621900399995
            ],
            [
              148.216284997,
              -9.38104804199997
            ],
            [
              148.207489987,
              -9.38697398099993
            ],
            [
              148.202213019,
              -9.39136399099993
            ],
            [
              148.199354966,
              -9.39531600799995
            ],
            [
              148.195837036,
              -9.39926698999994
            ],
            [
              148.191438968,
              -9.40190099299997
            ],
            [
              148.188800966,
              -9.40321796299997
            ],
            [
              148.187481016,
              -9.40387599299993
            ],
            [
              148.183523995,
              -9.40585203599994
            ],
            [
              148.181104986,
              -9.40651001999993
            ],
            [
              148.177367014,
              -9.41243700699994
            ],
            [
              148.17516803,
              -9.41880204199998
            ],
            [
              148.171430981,
              -9.42297299799998
            ],
            [
              148.16769302,
              -9.42582697899996
            ],
            [
              148.162635986,
              -9.43087498599994
            ],
            [
              148.158108996,
              -9.43394196799994
            ],
            [
              148.158238036,
              -9.43482596099994
            ],
            [
              148.157358999,
              -9.44119201099994
            ],
            [
              148.152082017,
              -9.44382597399994
            ],
            [
              148.147904009,
              -9.44821598799996
            ],
            [
              148.14372597,
              -9.45326498499998
            ],
            [
              148.13822901,
              -9.45985000299993
            ],
            [
              148.132951978,
              -9.46489803299994
            ],
            [
              148.129653963,
              -9.46775198799997
            ],
            [
              148.123497968,
              -9.47126398399996
            ],
            [
              148.117121016,
              -9.47521500499994
            ],
            [
              148.114703011,
              -9.47587295899996
            ],
            [
              148.110305037,
              -9.46840995499997
            ],
            [
              148.105248021,
              -9.46314203299994
            ],
            [
              148.100631016,
              -9.45831295799996
            ],
            [
              148.096232994,
              -9.45523996699995
            ],
            [
              148.094694007,
              -9.45304498199994
            ],
            [
              148.09271502,
              -9.45194799499995
            ],
            [
              148.087878028,
              -9.45150903299998
            ],
            [
              148.08392003,
              -9.45216700799995
            ],
            [
              148.079523024,
              -9.45458196599998
            ],
            [
              148.075345007,
              -9.45611800399996
            ],
            [
              148.069627991,
              -9.45963000999996
            ],
            [
              148.066550018,
              -9.46204496299993
            ],
            [
              148.064983978,
              -9.46204501699998
            ],
            [
              148.064051986,
              -9.46250995599996
            ],
            [
              148.063205032,
              -9.45804301999993
            ],
            [
              148.063205966,
              -9.45651300799994
            ],
            [
              148.061749014,
              -9.45259799699994
            ],
            [
              148.061204004,
              -9.45008003599997
            ],
            [
              148.060806994,
              -9.44789299799993
            ],
            [
              148.060886989,
              -9.44568797499994
            ],
            [
              148.061124029,
              -9.44444196699993
            ],
            [
              148.059654968,
              -9.44078700799997
            ],
            [
              148.058695979,
              -9.43851901799997
            ],
            [
              148.058757979,
              -9.43717896199996
            ],
            [
              148.06119198,
              -9.43272698299995
            ],
            [
              148.062629967,
              -9.43087798699997
            ],
            [
              148.063668013,
              -9.42853101199995
            ],
            [
              148.063205972,
              -9.42493902199993
            ],
            [
              148.060709965,
              -9.42172802099998
            ],
            [
              148.060167963,
              -9.42034204199996
            ],
            [
              148.059317004,
              -9.41922299399994
            ],
            [
              148.057429967,
              -9.41845904099995
            ],
            [
              148.055895964,
              -9.41804004099993
            ],
            [
              148.054104,
              -9.41687596399993
            ],
            [
              148.053238031,
              -9.41572602099995
            ],
            [
              148.052280031,
              -9.41411495699998
            ],
            [
              148.050968963,
              -9.41276000499994
            ],
            [
              148.049467018,
              -9.41170597599995
            ],
            [
              148.047415022,
              -9.41055700899994
            ],
            [
              148.046281991,
              -9.40903704099998
            ],
            [
              148.04576798,
              -9.40704298999998
            ],
            [
              148.043131025,
              -9.39576097199995
            ],
            [
              148.04295501,
              -9.39377902499996
            ],
            [
              148.043707011,
              -9.39253502799994
            ],
            [
              148.043673023,
              -9.39093901099994
            ],
            [
              148.041307965,
              -9.38606702899995
            ],
            [
              148.038373975,
              -9.38420602299993
            ],
            [
              148.037966029,
              -9.38368199099995
            ],
            [
              148.041923988,
              -9.37599898099995
            ],
            [
              148.045441986,
              -9.36260898699993
            ],
            [
              148.048081009,
              -9.35536599399995
            ],
            [
              148.049840031,
              -9.34834195999997
            ],
            [
              148.052037967,
              -9.34263498199994
            ],
            [
              148.054457033,
              -9.33780501099994
            ],
            [
              148.059513983,
              -9.32704998799994
            ],
            [
              148.061713001,
              -9.32419596099993
            ],
            [
              148.077544038,
              -9.30444102899997
            ],
            [
              148.094254011,
              -9.28973402299994
            ],
            [
              148.094694015,
              -9.28797798499994
            ],
            [
              148.10217001,
              -9.27414897299997
            ],
            [
              148.109206024,
              -9.26361296299996
            ],
            [
              148.111624963,
              -9.25746701199995
            ],
            [
              148.114483005,
              -9.25241795799997
            ],
            [
              148.11888,
              -9.24385798799995
            ],
            [
              148.119760025,
              -9.23705297499993
            ],
            [
              148.121958985,
              -9.22585800499996
            ],
            [
              148.121958967,
              -9.21356601399998
            ],
            [
              148.123717966,
              -9.20456696299993
            ],
            [
              148.127456016,
              -9.19337197399994
            ],
            [
              148.128335027,
              -9.18810401099995
            ],
            [
              148.129434004,
              -9.18481101299994
            ],
            [
              148.136030987,
              -9.16966503899994
            ],
            [
              148.14306699,
              -9.16154399799996
            ],
            [
              148.152740965,
              -9.15144696799996
            ],
            [
              148.159997037,
              -9.14266604099993
            ],
            [
              148.168791989,
              -9.13213000699994
            ],
            [
              148.169231977,
              -9.12795996899996
            ],
            [
              148.16923201,
              -9.12357001299995
            ],
            [
              148.167472994,
              -9.12071596299995
            ],
            [
              148.167473032,
              -9.12005802099998
            ],
            [
              148.166373004,
              -9.11830200399993
            ],
            [
              148.163295013,
              -9.11544799399996
            ],
            [
              148.159337009,
              -9.11281402099996
            ],
            [
              148.152082004,
              -9.11039903299996
            ],
            [
              148.146804967,
              -9.10908198899995
            ],
            [
              148.140208005,
              -9.10886301799997
            ],
            [
              148.137349989,
              -9.10886300599998
            ],
            [
              148.132072974,
              -9.10820395999997
            ],
            [
              148.127895023,
              -9.10535103399997
            ],
            [
              148.123498001,
              -9.10139999999996
            ],
            [
              148.119979982,
              -9.09635099799993
            ],
            [
              148.112064015,
              -9.08954703099994
            ],
            [
              148.109205972,
              -9.08647300199993
            ],
            [
              148.105028,
              -9.08296098799997
            ],
            [
              148.102610009,
              -9.07659604299994
            ],
            [
              148.105027983,
              -9.06913302999993
            ],
            [
              148.107667028,
              -9.06210903299996
            ],
            [
              148.112063973,
              -9.05530401399994
            ],
            [
              148.119319989,
              -9.04981600399998
            ],
            [
              148.123717997,
              -9.04279198399996
            ],
            [
              148.130753999,
              -9.03862200199995
            ],
            [
              148.134710987,
              -9.03642697599997
            ],
            [
              148.138009979,
              -9.03423196499995
            ],
            [
              148.139768999,
              -9.03006098599997
            ],
            [
              148.143706007,
              -9.02840599199993
            ],
            [
              148.144384974,
              -9.02501303899993
            ],
            [
              148.14570402,
              -9.02172098299997
            ],
            [
              148.147243989,
              -9.01711097799995
            ],
            [
              148.150762035,
              -9.01381900499996
            ],
            [
              148.154938973,
              -9.00986798399998
            ],
            [
              148.161754975,
              -9.00481901899997
            ],
            [
              148.169010992,
              -8.99867300199998
            ],
            [
              148.171649966,
              -8.99691699799996
            ],
            [
              148.173189036,
              -8.99252700299996
            ],
            [
              148.173188982,
              -8.98901503699994
            ],
            [
              148.173848975,
              -8.98616099599997
            ],
            [
              148.173849005,
              -8.98374702099994
            ],
            [
              148.173189004,
              -8.98177103299997
            ],
            [
              148.171869973,
              -8.97869796599997
            ],
            [
              148.176267014,
              -8.97518603199995
            ],
            [
              148.184842024,
              -8.96838099899998
            ],
            [
              148.189020012,
              -8.96596699899993
            ],
            [
              148.197154964,
              -8.96201597499993
            ],
            [
              148.204410971,
              -8.95762598499994
            ],
            [
              148.207710031,
              -8.95652800999994
            ],
            [
              148.20858901,
              -8.95499199999995
            ],
            [
              148.209248969,
              -8.95433299099994
            ],
            [
              148.211227973,
              -8.94994300799993
            ],
            [
              148.213628982,
              -8.94880696999996
            ],
            [
              148.213645976,
              -8.94818704099993
            ],
            [
              148.216943979,
              -8.94511401499994
            ],
            [
              148.216065034,
              -8.94226002199997
            ],
            [
              148.214085987,
              -8.93852900299993
            ],
            [
              148.21254701,
              -8.93567498499993
            ],
            [
              148.215184999,
              -8.92908995599993
            ],
            [
              148.223540966,
              -8.92491995799998
            ],
            [
              148.230356992,
              -8.92074902199994
            ],
            [
              148.23189598,
              -8.91592003299996
            ],
            [
              148.235194006,
              -8.91153003599993
            ],
            [
              148.245088024,
              -8.90670101999996
            ],
            [
              148.25322398,
              -8.90274999499997
            ],
            [
              148.262018991,
              -8.89879902299998
            ],
            [
              148.267736024,
              -8.89528600299997
            ],
            [
              148.267736021,
              -8.89199401799993
            ],
            [
              148.266855981,
              -8.88913999699997
            ],
            [
              148.26663598,
              -8.88474998199996
            ],
            [
              148.26553702,
              -8.88058002699995
            ],
            [
              148.264877014,
              -8.87684797899993
            ],
            [
              148.265757001,
              -8.87421400799997
            ],
            [
              148.265977011,
              -8.86982403199994
            ],
            [
              148.267955982,
              -8.86740901899998
            ],
            [
              148.273013028,
              -8.86675098599994
            ],
            [
              148.277850008,
              -8.86653096099997
            ],
            [
              148.28598501,
              -8.86653099199998
            ],
            [
              148.293461031,
              -8.86653095799994
            ],
            [
              148.299397965,
              -8.86675103499994
            ],
            [
              148.306874027,
              -8.86675100299993
            ],
            [
              148.311491013,
              -8.86587303599993
            ],
            [
              148.316107999,
              -8.86521398799994
            ],
            [
              148.324023999,
              -8.86653096899994
            ],
            [
              148.325782973,
              -8.86653097099997
            ],
            [
              148.331060037,
              -8.86653101699994
            ],
            [
              148.335677019,
              -8.86653099799997
            ],
            [
              148.338610963,
              -8.86611302399996
            ],
            [
              148.338536019,
              -8.86587298399996
            ],
            [
              148.339195024,
              -8.86543403599995
            ],
            [
              148.343812984,
              -8.86455603999997
            ],
            [
              148.349310024,
              -8.86389704399994
            ],
            [
              148.359643989,
              -8.86214101899998
            ],
            [
              148.369317991,
              -8.86170203899997
            ]
          ]
        ]
      }
    }
  ]
}